[{"OBJECT_NAME":"STARLINK-5065","OBJECT_ID":"2023-021P","EPOCH":"2025-12-17T06:41:22.769664","MEAN_MOTION":14.98337153,"ECCENTRICITY":0.00030771,"INCLINATION":70.0002,"RA_OF_ASC_NODE":32.3782,"ARG_OF_PERICENTER":267.3664,"MEAN_ANOMALY":92.7143,"EPHEMERIS_TYPE":0,"CLASSIFICATION_TYPE":"U","NORAD_CAT_ID":55641,"ELEMENT_SET_NO":999,"REV_AT_EPOCH":15644,"BSTAR":0.00010060707,"MEAN_MOTION_DOT":1.108e-5,"MEAN_MOTION_DDOT":0},{"OBJECT_NAME":"STARLINK-5483","OBJECT_ID":"2023-021R","EPOCH":"2025-12-17T06:53:23.679168","MEAN_MOTION":14.9833642,"ECCENTRICITY":0.0003575,"INCLINATION":70.0002,"RA_OF_ASC_NODE":32.4038,"ARG_OF_PERICENTER":270.1126,"MEAN_ANOMALY":89.9624,"EPHEMERIS_TYPE":0,"CLASSIFICATION_TYPE":"U","NORAD_CAT_ID":55643,"ELEMENT_SET_NO":999,"REV_AT_EPOCH":15644,"BSTAR":8.2766962e-5,"MEAN_MOTION_DOT":8.95e-6,"MEAN_MOTION_DDOT":0},{"OBJECT_NAME":"STARLINK-5502","OBJECT_ID":"2023-021S","EPOCH":"2025-12-17T07:59:28.455936","MEAN_MOTION":14.98331423,"ECCENTRICITY":0.00029718,"INCLINATION":70.0003,"RA_OF_ASC_NODE":32.1681,"ARG_OF_PERICENTER":267.0219,"MEAN_ANOMALY":93.06,"EPHEMERIS_TYPE":0,"CLASSIFICATION_TYPE":"U","NORAD_CAT_ID":55644,"ELEMENT_SET_NO":999,"REV_AT_EPOCH":15645,"BSTAR":-0.00012554864,"MEAN_MOTION_DOT":-1.591e-5,"MEAN_MOTION_DDOT":0},{"OBJECT_NAME":"STARLINK-5510","OBJECT_ID":"2023-021V","EPOCH":"2025-12-17T07:11:23.396640","MEAN_MOTION":14.98335385,"ECCENTRICITY":0.00030713,"INCLINATION":69.9999,"RA_OF_ASC_NODE":32.0512,"ARG_OF_PERICENTER":272.3467,"MEAN_ANOMALY":87.734,"EPHEMERIS_TYPE":0,"CLASSIFICATION_TYPE":"U","NORAD_CAT_ID":55647,"ELEMENT_SET_NO":999,"REV_AT_EPOCH":15645,"BSTAR":5.1639462e-5,"MEAN_MOTION_DOT":5.23e-6,"MEAN_MOTION_DDOT":0},{"OBJECT_NAME":"STARLINK-5501","OBJECT_ID":"2023-021W","EPOCH":"2025-12-17T07:53:28.272480","MEAN_MOTION":14.9832779,"ECCENTRICITY":0.00031727,"INCLINATION":70.0004,"RA_OF_ASC_NODE":32.1563,"ARG_OF_PERICENTER":270.8984,"MEAN_ANOMALY":89.1811,"EPHEMERIS_TYPE":0,"CLASSIFICATION_TYPE":"U","NORAD_CAT_ID":55648,"ELEMENT_SET_NO":999,"REV_AT_EPOCH":15645,"BSTAR":-0.00016180809,"MEAN_MOTION_DOT":-2.023e-5,"MEAN_MOTION_DDOT":0},{"OBJECT_NAME":"STARLINK-5469","OBJECT_ID":"2023-021X","EPOCH":"2025-12-17T07:23:25.863072","MEAN_MOTION":14.98313883,"ECCENTRICITY":0.00031128,"INCLINATION":70.0004,"RA_OF_ASC_NODE":32.0818,"ARG_OF_PERICENTER":267.0428,"MEAN_ANOMALY":93.0375,"EPHEMERIS_TYPE":0,"CLASSIFICATION_TYPE":"U","NORAD_CAT_ID":55649,"ELEMENT_SET_NO":999,"REV_AT_EPOCH":15645,"BSTAR":0.00012429699,"MEAN_MOTION_DOT":1.39e-5,"MEAN_MOTION_DDOT":0},{"OBJECT_NAME":"STARLINK-5494","OBJECT_ID":"2023-021Y","EPOCH":"2025-12-17T07:41:28.185504","MEAN_MOTION":14.9832133,"ECCENTRICITY":0.00026007,"INCLINATION":70.0019,"RA_OF_ASC_NODE":32.1265,"ARG_OF_PERICENTER":249.8306,"MEAN_ANOMALY":110.2574,"EPHEMERIS_TYPE":0,"CLASSIFICATION_TYPE":"U","NORAD_CAT_ID":55650,"ELEMENT_SET_NO":999,"REV_AT_EPOCH":15645,"BSTAR":0.00016638908,"MEAN_MOTION_DOT":1.892e-5,"MEAN_MOTION_DDOT":0},{"OBJECT_NAME":"STARLINK-5506","OBJECT_ID":"2023-021Z","EPOCH":"2025-12-17T08:05:29.596704","MEAN_MOTION":14.98329262,"ECCENTRICITY":0.00029272,"INCLINATION":70.0006,"RA_OF_ASC_NODE":32.1848,"ARG_OF_PERICENTER":265.9159,"MEAN_ANOMALY":94.1666,"EPHEMERIS_TYPE":0,"CLASSIFICATION_TYPE":"U","NORAD_CAT_ID":55651,"ELEMENT_SET_NO":999,"REV_AT_EPOCH":15645,"BSTAR":3.6002019e-5,"MEAN_MOTION_DOT":3.37e-6,"MEAN_MOTION_DDOT":0},{"OBJECT_NAME":"STARLINK-5487","OBJECT_ID":"2023-021AA","EPOCH":"2025-12-17T07:29:25.747584","MEAN_MOTION":14.98347082,"ECCENTRICITY":0.00021664,"INCLINATION":70.0019,"RA_OF_ASC_NODE":32.0968,"ARG_OF_PERICENTER":253.4064,"MEAN_ANOMALY":106.6857,"EPHEMERIS_TYPE":0,"CLASSIFICATION_TYPE":"U","NORAD_CAT_ID":55652,"ELEMENT_SET_NO":999,"REV_AT_EPOCH":15645,"BSTAR":4.0778667e-5,"MEAN_MOTION_DOT":3.94e-6,"MEAN_MOTION_DDOT":0},{"OBJECT_NAME":"STARLINK-5067","OBJECT_ID":"2023-021AB","EPOCH":"2025-12-17T07:05:22.528032","MEAN_MOTION":14.98357089,"ECCENTRICITY":0.00032263,"INCLINATION":70.0017,"RA_OF_ASC_NODE":32.0353,"ARG_OF_PERICENTER":269.3214,"MEAN_ANOMALY":90.7575,"EPHEMERIS_TYPE":0,"CLASSIFICATION_TYPE":"U","NORAD_CAT_ID":55653,"ELEMENT_SET_NO":999,"REV_AT_EPOCH":15645,"BSTAR":0.00053714391,"MEAN_MOTION_DOT":6.326e-5,"MEAN_MOTION_DDOT":0},{"OBJECT_NAME":"STARLINK-5070","OBJECT_ID":"2023-021AC","EPOCH":"2025-12-17T06:47:23.277984","MEAN_MOTION":14.98333758,"ECCENTRICITY":0.00030646,"INCLINATION":70.0007,"RA_OF_ASC_NODE":32.3975,"ARG_OF_PERICENTER":270.6344,"MEAN_ANOMALY":89.4464,"EPHEMERIS_TYPE":0,"CLASSIFICATION_TYPE":"U","NORAD_CAT_ID":55654,"ELEMENT_SET_NO":999,"REV_AT_EPOCH":15644,"BSTAR":5.8498426e-5,"MEAN_MOTION_DOT":6.05e-6,"MEAN_MOTION_DDOT":0},{"OBJECT_NAME":"STARLINK-5267","OBJECT_ID":"2023-021AD","EPOCH":"2025-12-17T07:41:07.190304","MEAN_MOTION":14.9834984,"ECCENTRICITY":0.0003118,"INCLINATION":70.0001,"RA_OF_ASC_NODE":12.249,"ARG_OF_PERICENTER":270.7301,"MEAN_ANOMALY":89.35,"EPHEMERIS_TYPE":0,"CLASSIFICATION_TYPE":"U","NORAD_CAT_ID":55655,"ELEMENT_SET_NO":999,"REV_AT_EPOCH":15693,"BSTAR":-0.00049096154,"MEAN_MOTION_DOT":-5.949e-5,"MEAN_MOTION_DDOT":0},{"OBJECT_NAME":"STARLINK-5328","OBJECT_ID":"2023-021AF","EPOCH":"2025-12-17T07:53:08.854944","MEAN_MOTION":14.98330805,"ECCENTRICITY":0.00030095,"INCLINATION":70.0002,"RA_OF_ASC_NODE":12.2788,"ARG_OF_PERICENTER":268.4252,"MEAN_ANOMALY":91.6563,"EPHEMERIS_TYPE":0,"CLASSIFICATION_TYPE":"U","NORAD_CAT_ID":55657,"ELEMENT_SET_NO":999,"REV_AT_EPOCH":15694,"BSTAR":2.5651708e-5,"MEAN_MOTION_DOT":2.13e-6,"MEAN_MOTION_DDOT":0},{"OBJECT_NAME":"STARLINK-5307","OBJECT_ID":"2023-021AG","EPOCH":"2025-12-17T07:17:24.400896","MEAN_MOTION":14.98333354,"ECCENTRICITY":0.00032494,"INCLINATION":70.0002,"RA_OF_ASC_NODE":32.0665,"ARG_OF_PERICENTER":271.6135,"MEAN_ANOMALY":88.4651,"EPHEMERIS_TYPE":0,"CLASSIFICATION_TYPE":"U","NORAD_CAT_ID":55658,"ELEMENT_SET_NO":999,"REV_AT_EPOCH":15645,"BSTAR":0.00010047466,"MEAN_MOTION_DOT":1.106e-5,"MEAN_MOTION_DDOT":0},{"OBJECT_NAME":"STARLINK-5477","OBJECT_ID":"2023-021AH","EPOCH":"2025-12-17T07:47:07.940544","MEAN_MOTION":14.98334921,"ECCENTRICITY":0.00031729,"INCLINATION":70.0002,"RA_OF_ASC_NODE":12.2622,"ARG_OF_PERICENTER":273.3661,"MEAN_ANOMALY":86.7135,"EPHEMERIS_TYPE":0,"CLASSIFICATION_TYPE":"U","NORAD_CAT_ID":55659,"ELEMENT_SET_NO":999,"REV_AT_EPOCH":15693,"BSTAR":-1.9942928e-5,"MEAN_MOTION_DOT":-3.31e-6,"MEAN_MOTION_DDOT":0},{"OBJECT_NAME":"STARLINK-5467","OBJECT_ID":"2023-021AJ","EPOCH":"2025-12-17T06:36:49.737888","MEAN_MOTION":14.96931517,"ECCENTRICITY":0.00054725,"INCLINATION":69.9994,"RA_OF_ASC_NODE":12.1017,"ARG_OF_PERICENTER":137.8537,"MEAN_ANOMALY":222.3043,"EPHEMERIS_TYPE":0,"CLASSIFICATION_TYPE":"U","NORAD_CAT_ID":55660,"ELEMENT_SET_NO":999,"REV_AT_EPOCH":15694,"BSTAR":-0.015856074,"MEAN_MOTION_DOT":-0.00178071,"MEAN_MOTION_DDOT":0}]
