STARLINK-5065           
1 55641U 23021P   25351.27873576  .00001108  00000+0  10061-3 0  9990
2 55641  70.0002  32.3782 0003077 267.3664  92.7143 14.98337153156448
STARLINK-5483           
1 55643U 23021R   25351.28707962  .00000895  00000+0  82767-4 0  9993
2 55643  70.0002  32.4038 0003575 270.1126  89.9624 14.98336420156441
STARLINK-5502           
1 55644U 23021S   25351.33296824 -.00001591  00000+0 -12555-3 0  9993
2 55644  70.0003  32.1681 0002971 267.0219  93.0600 14.98331423156450
STARLINK-5510           
1 55647U 23021V   25351.29957635  .00000523  00000+0  51639-4 0  9994
2 55647  69.9999  32.0512 0003071 272.3467  87.7340 14.98335385156454
STARLINK-5501           
1 55648U 23021W   25351.32879945 -.00002023  00000+0 -16181-3 0  9997
2 55648  70.0004  32.1563 0003172 270.8984  89.1811 14.98327790156451
STARLINK-5469           
1 55649U 23021X   25351.30793823  .00001390  00000+0  12430-3 0  9993
2 55649  70.0004  32.0818 0003112 267.0428  93.0375 14.98313883156456
STARLINK-5494           
1 55650U 23021Y   25351.32046511  .00001892  00000+0  16639-3 0  9994
2 55650  70.0019  32.1265 0002600 249.8306 110.2574 14.98321330156454
STARLINK-5506           
1 55651U 23021Z   25351.33714811  .00000337  00000+0  36002-4 0  9991
2 55651  70.0006  32.1848 0002927 265.9159  94.1666 14.98329262156459
STARLINK-5487           
1 55652U 23021AA  25351.31210356  .00000394  00000+0  40779-4 0  9994
2 55652  70.0019  32.0968 0002166 253.4064 106.6857 14.98347082156459
STARLINK-5067           
1 55653U 23021AB  25351.29539963  .00006326  00000+0  53714-3 0  9993
2 55653  70.0017  32.0353 0003226 269.3214  90.7575 14.98357089156455
STARLINK-5070           
1 55654U 23021AC  25351.28290831  .00000605  00000+0  58498-4 0  9990
2 55654  70.0007  32.3975 0003064 270.6344  89.4464 14.98333758156445
STARLINK-5267           
1 55655U 23021AD  25351.32022211 -.00005949  00000+0 -49096-3 0  9992
2 55655  70.0001  12.2490 0003118 270.7301  89.3500 14.98349840156936
STARLINK-5328           
1 55657U 23021AF  25351.32857471  .00000213  00000+0  25652-4 0  9998
2 55657  70.0002  12.2788 0003009 268.4252  91.6563 14.98330805156944
STARLINK-5307           
1 55658U 23021AG  25351.30375464  .00001106  00000+0  10047-3 0  9997
2 55658  70.0002  32.0665 0003249 271.6135  88.4651 14.98333354156451
STARLINK-5477           
1 55659U 23021AH  25351.32439746 -.00000331  00000+0 -19943-4 0  9990
2 55659  70.0002  12.2622 0003172 273.3661  86.7135 14.98334921156935
STARLINK-5467           
1 55660U 23021AJ  25351.27557567 -.00178071  00000+0 -15856-1 0  9991
2 55660  69.9994  12.1017 0005472 137.8537 222.3043 14.96931517156941
